#cP2023  6 28  0  0  0.00000000      96 ORBIT IGS20 HLM  IGS
## 2268 259200.00000000   900.00000000 60123 0.0000000000000
+   32   G01G02G03G04G05G06G07G08G09G10G11G12G13G14G15G16G17
+        G18G19G20G21G22G23G24G25G26G27G28G29G30G31G32  0  0
+          0  0  0  0  0  0  0  0  0  0  0  0  0  0  0  0  0
+          0  0  0  0  0  0  0  0  0  0  0  0  0  0  0  0  0
+          0  0  0  0  0  0  0  0  0  0  0  0  0  0  0  0  0
++         2  2  2  2  2  2  2  2  1  2  2  2  2  2  2  2  2
++         2  2  3  2  3  2  2  2  2  2  2  2  2  2  2  0  0
++         0  0  0  0  0  0  0  0  0  0  0  0  0  0  0  0  0
++         0  0  0  0  0  0  0  0  0  0  0  0  0  0  0  0  0
++         0  0  0  0  0  0  0  0  0  0  0  0  0  0  0  0  0
%c G  cc GPS ccc cccc cccc cccc cccc ccccc ccccc ccccc ccccc
%c cc cc ccc ccc cccc cccc cccc cccc ccccc ccccc ccccc ccccc
%f  1.2500000  1.025000000  0.00000000000  0.000000000000000
%f  0.0000000  0.000000000  0.00000000000  0.000000000000000
%i    0    0    0    0      0      0      0      0         0
%i    0    0    0    0      0      0      0      0         0
/* RAPID ORBIT COMBINATION FROM WEIGHTED AVERAGE OF:        
/* cod emr esa gfz grg jpl ngs sio usn whu                  
/* REFERENCED TO IGS TIME (IGST) AND TO WEIGHTED MEAN POLE: 
/* PCV:IGS20_2233 OL/AL:FES2014b NONE     Y  ORB:CMB CLK:CMB
*  2023  6 28 21 45  0.00000000
PG01 -13454.144441  21839.123238  -6480.938959    175.659813  4  6  8  90       
PG02 -16137.564973  20971.071510   1399.724666   -581.356583  5  7  7  90       
PG03  -7607.356669  13444.555580 -21727.786737   -253.340102  6  5  9 106       
PG04  -2254.970784  22880.956204 -13184.509720     81.041684  4  7  2  97       
PG05  22484.748082  -5916.131357  12765.946177   -132.885803  4  7  5  95       
PG06  14911.578326   4349.121387 -21502.263078    582.187058  3  5  5  90       
PG07    252.920873  19686.608591  18065.017800    139.769046  4  6  5 112       
PG08  -9964.374184  13659.731945  20311.942060   -129.611513  4  5  5 105       
PG09   6363.693873  25368.922016  -4559.635805   -124.845736  6  5  4  92       
PG10 -21733.219267 -11267.716444  10866.163609    -43.058784  9  7  7  98       
PG11  21128.996900  -9505.520832 -12941.865947   -254.204054  5  4  4 100       
PG12  11855.054916 -11885.235214 -20839.711083   -394.302442  6  5  6 109       
PG13  14088.898937  -5271.656996  21696.367356    540.217285  6  6  5  74       
PG14  19087.503505  13432.786372  12839.038677    105.596705  7  5  4  96       
PG15   8059.002322 -15548.535589  19435.127746     53.143334  6  6  6  67       
PG16 -24845.402164    205.255921   9687.825699   -486.621049  7  7  4  92       
PG17  13474.316779  19874.372764 -10807.421192    719.712660  6  7  5  91       
PG18  -1937.807408 -17886.348021  19480.495757   -325.642908  3  7  6 120       
PG19  15402.648986  13622.874232 -17204.601561    336.822027  7  9  6  98       
PG20  26164.691661  -2153.880492   3312.399780    425.501280  6  7  8  79       
PG21 -17268.052077  19163.281511   4397.862279    152.692348  5  5  5  98       
PG22 -15920.645293 -10201.995126 -18262.969572    504.991191  8 10 10  82       
PG23 -10918.819594 -14814.094590  19214.321077     37.758644  8 10 10 105       
PG24  14349.770810 -22056.458397  -1240.070827   -240.554659  6  6  4 103       
PG25  -2449.461827 -15884.654739 -21493.288529    452.812747  5  6  5  92       
PG26 -26286.080140  -4493.142844  -2206.426538    237.925387  6  4  5 104       
PG27 -15349.360323   1063.350077  21439.740078      7.325438  6  5  7  66       
PG28 -14237.894290  -6247.155500 -21554.139886     83.600217  5  4  7  86       
PG29  -2821.476123 -25650.980353  -6124.932685   -604.166245  8  7  6 125       
PG30   9243.620076  13232.055176  21180.775385   -507.952738  6  6  5  99       
PG31 -20266.698013   4887.165045 -16869.930009   -219.076736  5  4  6  95       
PG32 -15791.977519 -17293.206168 -12536.138130   -510.259275  6  5  6  94       
*  2023  6 28 22  0  0.00000000
PG01 -13944.363370  22139.324386  -3624.542941    175.657837  4  6  8  89       
PG02 -16191.364855  20611.855029   4253.440277   -581.353403  5  7  6  94       
PG03  -9985.762682  13040.976554 -20983.223209   -253.327136  6  5  8  98       
PG04  -2992.973767  21405.474449 -15347.246494     81.051212  4  7  3  85       
PG05  23801.071637  -5585.991424  10341.232497   -132.887084  4  7  5  93       
PG06  13369.553745   6309.372452 -22014.614670    582.184678  2  5  5  88       
PG07  -1080.007424  21063.144417  16311.076471    139.759371  4  6  6 114       
PG08 -10997.783500  11496.897425  21134.007917   -129.613474  3  5  6  76       
PG09   5861.350051  24852.966033  -7300.121624   -124.837640  6  5  4  84       
PG10 -20383.299916 -11219.442076  13274.685575    -43.060109  8  7  8  99       
PG11  20212.547210  -8170.665096 -15134.350861   -254.218091  5  4  4 102       
PG12  14051.598217 -11314.450967 -19741.815658   -394.306728  6  5  6 101       
PG13  14704.296942  -2824.242366  21762.596105    540.222066  6  6  5  53       
PG14  17487.878530  13364.520232  14995.179391    105.607699  6  5  5 104       
PG15   9354.847928 -13543.327807  20337.155954     53.146635  6  6  6  56       
PG16 -25758.083137   -214.750237   7068.039810   -486.617420  7  7  4  81       
PG17  13629.770331  21028.795392  -8209.244197    719.713868  6  6  5 100       
PG18   -484.032027 -19469.472089  17981.894901   -325.656066  3  7  5 121       
PG19  15769.239947  15397.256721 -15268.214431    336.826533  7  9  6  97       
PG20  26386.839612  -1857.144052    479.805248    425.499317  6  7  6  84       
PG21 -17181.882876  18479.806641   7201.512454    152.692228  5  6  5  97       
PG22 -16381.518430 -12225.542638 -16590.976270    504.996133  9 10 11  91       
PG23  -8663.729849 -14638.307777  20444.666101     37.762149  7  9  9  98       
PG24  14624.767607 -21807.124806   1584.850450   -240.566174  6  6  4  99       
PG25    -55.016218 -15589.120950 -21827.961551    452.814957  5  5  5 103       
PG26 -25870.457659  -4762.124805  -4948.420348    237.924494  6  5  4  98       
PG27 -16234.796336  -1235.138824  20812.392286      7.318773  7  6  7  64       
PG28 -12790.002149  -8254.827194 -21785.790778     83.599982  5  5  7  99       
PG29  -2371.724626 -24900.422215  -8843.462348   -604.167090  8  7  6 121       
PG30   7693.147245  15036.046367  20560.880321   -507.950361  6  6  5 101       
PG31 -19108.433385   3274.727374 -18509.749341   -219.077441  5  3  6  83       
PG32 -16094.527009 -18589.932160 -10112.395846   -510.266539  6  4  7  88       
*  2023  6 28 22 15  0.00000000
PG01 -14226.694427  22197.703923   -704.765822    175.655898  4  7  8  64       
PG02 -16100.535064  19983.392382   7033.945586   -581.350184  5  8  6  86       
PG03 -12280.555900  12778.165660 -19881.123725   -253.314132  6  5  8  98       
PG04  -3897.169623  19759.021870 -17244.322294     81.060771  5  7  4  80       
PG05  24846.914014  -5338.699887   7738.213937   -132.888753  5  6  5  88       
PG06  11918.830165   8384.237799 -22146.361898    582.182163  1  5  4  97       
PG07  -2225.119817  22334.360205  14279.675885    139.750273  4  6  6 109       
PG08 -12171.447189   9328.083798  21588.018253   -129.616378  4  5  6  93       
PG09   5199.264147  24092.069430  -9914.936651   -124.829492  6  5  5  83       
PG10 -18775.912088 -11225.346977  15460.505579    -43.060954  7  7  8  96       
PG11  19224.635070  -6604.690120 -17065.784694   -254.232117  6  4  5 109       
PG12  16137.300506 -10882.831612 -18311.131610   -394.311143  7  5  7 103       
PG13  15443.783838   -428.553650  21448.215943    540.226428  6  6  5  70       
PG14  15659.216852  13350.656785  16895.349459    105.618693  6  5  5  96       
PG15  10786.365055 -11531.559540  20873.134857     53.149750  5  6  6  66       
PG16 -26393.527044   -530.319538   4328.614369   -486.613675  7  7  4  95       
PG17  13736.092674  21886.249654  -5466.669883    719.714728  5  5  6  98       
PG18    772.908843 -20977.060424  16172.015996   -325.669263  4  6  5 125       
PG19  16156.903124  16930.383438 -13076.377393    336.831146  8  9  6 102       
PG20  26302.440034  -1545.073998  -2361.143343    425.497637  7  7  5  85       
PG21 -16970.263409  17526.016429   9876.718805    152.691728  5  6  5  91       
PG22 -16874.155856 -14022.763537 -14625.794745    505.001300  9 10 11  96       
PG23  -6281.811026 -14579.065168  21324.610944     37.765649  6  8  9  99       
PG24  14753.530831 -21291.333945   4381.657899   -240.577631  6  6  4  91       
PG25   2370.852527 -15416.704096 -21797.959033    452.817130  5  5  5 103       
PG26 -25166.793827  -5044.975105  -7607.196756    237.923566  6  5  4 111       
PG27 -17199.143626  -3395.797636  19821.385869      7.312097  7  6  8  78       
PG28 -11446.181025 -10339.554385 -21643.300318     83.599785  5  6  7  97       
PG29  -1775.765625 -23895.185470 -11409.283356   -604.168063  8  7  6 110       
PG30   6281.211429  16841.771445  19589.118893   -507.948008  6  7  5 100       
PG31 -17936.746972   1468.363944 -19839.639810   -219.078070  6  3  6  97       
PG32 -16342.156245 -19611.125899  -7515.120118   -510.273812  6  3  7 102       
EOF
